{"type": "FeatureCollection", "features": [ {"type": "Feature", "properties": {"norad_id": 28649, "name": "IRS-P5 (CARTOSAT-1)", "group": "resource", "lat": -9.286448109129687, "lon": -177.41426784513888, "alt_km": 601.9747809653718, "timestamp": "2025-12-02T23:34:15.170048+00:00", "meta": {"OBJECT_NAME": "IRS-P5 (CARTOSAT-1)", "OBJECT_ID": "2005-017A", "EPOCH": "2025-12-02T01:46:36.348384", "MEAN_MOTION": 14.90343635, "ECCENTRICITY": 0.00018344, "INCLINATION": 97.5508, "RA_OF_ASC_NODE": 2.9606, "ARG_OF_PERICENTER": 54.2083, "MEAN_ANOMALY": 305.9306, "EPHEMERIS_TYPE": 0, "CLASSIFICATION_TYPE": "U", "NORAD_CAT_ID": 28649, "ELEMENT_SET_NO": 999, "REV_AT_EPOCH": 11445, "BSTAR": 0.00021173898, "MEAN_MOTION_DOT": 2.007e-05, "MEAN_MOTION_DDOT": 0}, "tle": {"line1": "1 28649U 05017A   25336.07403181  .00002007  00000+0  21174-3 0  9991", "line2": "2 28649  97.5508   2.9606 0001834  54.2083 305.9306 14.90343635114455"}}, "geometry": {"type": "Point", "coordinates": [-177.41426784513888, -9.286448109129687]}}, {"type": "Feature", "properties": {"norad_id": 28893, "name": "SINAH 1", "group": "resource", "lat": 28.416870519756966, "lon": 101.00542144549007, "alt_km": 686.866602827241, "timestamp": "2025-12-02T23:34:15.170060+00:00", "meta": {"OBJECT_NAME": "SINAH 1", "OBJECT_ID": "2005-043D", "EPOCH": "2025-12-02T11:57:25.085664", "MEAN_MOTION": 14.63943369, "ECCENTRICITY": 0.0014769, "INCLINATION": 98.2599, "RA_OF_ASC_NODE": 105.0285, "ARG_OF_PERICENTER": 167.8198, "MEAN_ANOMALY": 192.3363, "EPHEMERIS_TYPE": 0, "CLASSIFICATION_TYPE": "U", "NORAD_CAT_ID": 28893, "ELEMENT_SET_NO": 999, "REV_AT_EPOCH": 7174, "BSTAR": 0.00014787, "MEAN_MOTION_DOT": 7.26e-06, "MEAN_MOTION_DDOT": 0}, "tle": {"line1": "1 28893U 05043D   25336.49820701  .00000726  00000+0  14787-3 0  9996", "line2": "2 28893  98.2599 105.0285 0014769 167.8198 192.3363 14.63943369 71746"}}, "geometry": {"type": "Point", "coordinates": [101.00542144549007, 28.416870519756966]}}, {"type": "Feature", "properties": {"norad_id": 29079, "name": "EROS B", "group": "resource", "lat": 46.248254779697696, "lon": 85.3710290123344, "alt_km": 372.43716474961457, "timestamp": "2025-12-02T23:34:15.170071+00:00", "meta": {"OBJECT_NAME": "EROS B", "OBJECT_ID": "2006-014A", "EPOCH": "2025-12-02T12:37:32.424672", "MEAN_MOTION": 15.64347483, "ECCENTRICITY": 0.0002427, "INCLINATION": 97.3486, "RA_OF_ASC_NODE": 92.6435, "ARG_OF_PERICENTER": 232.3875, "MEAN_ANOMALY": 127.7164, "EPHEMERIS_TYPE": 0, "CLASSIFICATION_TYPE": "U", "NORAD_CAT_ID": 29079, "ELEMENT_SET_NO": 999, "REV_AT_EPOCH": 8920, "BSTAR": 0.0015618, "MEAN_MOTION_DOT": 0.00151631, "MEAN_MOTION_DDOT": 0}, "tle": {"line1": "1 29079U 06014A   25336.52606973  .00151631  00000+0  15618-2 0  9994", "line2": "2 29079  97.3486  92.6435 0002427 232.3875 127.7164 15.64347483 89202"}}, "geometry": {"type": "Point", "coordinates": [85.3710290123344, 46.248254779697696]}}, {"type": "Feature", "properties": {"norad_id": 29228, "name": "RESURS-DK 1", "group": "resource", "lat": 41.695382314739994, "lon": 146.05681360396673, "alt_km": 530.0741153891177, "timestamp": "2025-12-02T23:34:15.170081+00:00", "meta": {"OBJECT_NAME": "RESURS-DK 1", "OBJECT_ID": "2006-021A", "EPOCH": "2025-12-02T12:15:29.765088", "MEAN_MOTION": 15.12065188, "ECCENTRICITY": 0.0007829, "INCLINATION": 69.9324, "RA_OF_ASC_NODE": 128.2693, "ARG_OF_PERICENTER": 266.0384, "MEAN_ANOMALY": 93.9886, "EPHEMERIS_TYPE": 0, "CLASSIFICATION_TYPE": "U", "NORAD_CAT_ID": 29228, "ELEMENT_SET_NO": 999, "REV_AT_EPOCH": 7283, "BSTAR": 0.00024695, "MEAN_MOTION_DOT": 4.154e-05, "MEAN_MOTION_DDOT": 0}, "tle": {"line1": "1 29228U 06021A   25336.51076117  .00004154  00000+0  24695-3 0  9991", "line2": "2 29228  69.9324 128.2693 0007829 266.0384  93.9886 15.12065188 72834"}}, "geometry": {"type": "Point", "coordinates": [146.05681360396673, 41.695382314739994]}}, {"type": "Feature", "properties": {"norad_id": 29268, "name": "ARIRANG-2 (KOMPSAT-2)", "group": "resource", "lat": -80.18982780915677, "lon": -141.37071299106344, "alt_km": 681.9703361375659, "timestamp": "2025-12-02T23:34:15.170093+00:00", "meta": {"OBJECT_NAME": "ARIRANG-2 (KOMPSAT-2)", "OBJECT_ID": "2006-031A", "EPOCH": "2025-12-02T12:51:35.609184", "MEAN_MOTION": 14.64478877, "ECCENTRICITY": 0.0014065, "INCLINATION": 97.8265, "RA_OF_ASC_NODE": 165.5061, "ARG_OF_PERICENTER": 342.8469, "MEAN_ANOMALY": 101.7525, "EPHEMERIS_TYPE": 0, "CLASSIFICATION_TYPE": "U", "NORAD_CAT_ID": 29268, "ELEMENT_SET_NO": 999, "REV_AT_EPOCH": 3269, "BSTAR": 0.00011596, "MEAN_MOTION_DOT": 5.7e-06, "MEAN_MOTION_DDOT": 0}, "tle": {"line1": "1 29268U 06031A   25336.53582881  .00000570  00000+0  11596-3 0  9992", "line2": "2 29268  97.8265 165.5061 0014065 342.8469 101.7525 14.64478877 32699"}}, "geometry": {"type": "Point", "coordinates": [-141.37071299106344, -80.18982780915677]}}, {"type": "Feature", "properties": {"norad_id": 29709, "name": "LAPAN-TUBSAT", "group": "resource", "lat": -7.9437978814790196, "lon": 145.79611715202768, "alt_km": 614.7295482063873, "timestamp": "2025-12-02T23:34:15.170105+00:00", "meta": {"OBJECT_NAME": "LAPAN-TUBSAT", "OBJECT_ID": "2007-001A", "EPOCH": "2025-12-02T11:24:50.385888", "MEAN_MOTION": 14.85645377, "ECCENTRICITY": 0.0013587, "INCLINATION": 98.1251, "RA_OF_ASC_NODE": 326.4215, "ARG_OF_PERICENTER": 104.4516, "MEAN_ANOMALY": 255.8207, "EPHEMERIS_TYPE": 0, "CLASSIFICATION_TYPE": "U", "NORAD_CAT_ID": 29709, "ELEMENT_SET_NO": 999, "REV_AT_EPOCH": 2194, "BSTAR": 0.00011705, "MEAN_MOTION_DOT": 9.58e-06, "MEAN_MOTION_DDOT": 0}, "tle": {"line1": "1 29709U 07001A   25336.47558317  .00000958  00000+0  11705-3 0  9992", "line2": "2 29709  98.1251 326.4215 0013587 104.4516 255.8207 14.85645377 21948"}}, "geometry": {"type": "Point", "coordinates": [145.79611715202768, -7.9437978814790196]}}, {"type": "Feature", "properties": {"norad_id": 31113, "name": "HAIYANG-1B", "group": "resource", "lat": -11.6176165375315, "lon": 139.93761450619792, "alt_km": 799.1094601169689, "timestamp": "2025-12-02T23:34:15.170115+00:00", "meta": {"OBJECT_NAME": "HAIYANG-1B", "OBJECT_ID": "2007-010A", "EPOCH": "2025-12-02T10:55:56.515008", "MEAN_MOTION": 14.30959398, "ECCENTRICITY": 0.0014611, "INCLINATION": 98.3307, "RA_OF_ASC_NODE": 321.1591, "ARG_OF_PERICENTER": 66.4075, "MEAN_ANOMALY": 293.8641, "EPHEMERIS_TYPE": 0, "CLASSIFICATION_TYPE": "U", "NORAD_CAT_ID": 31113, "ELEMENT_SET_NO": 999, "REV_AT_EPOCH": 97249, "BSTAR": 8.2357e-05, "MEAN_MOTION_DOT": 1.75e-06, "MEAN_MOTION_DDOT": 0}, "tle": {"line1": "1 31113U 07010A   25336.45551522  .00000175  00000+0  82357-4 0  9996", "line2": "2 31113  98.3307 321.1591 0014611  66.4075 293.8641 14.30959398972499"}}, "geometry": {"type": "Point", "coordinates": [139.93761450619792, -11.6176165375315]}}, {"type": "Feature", "properties": {"norad_id": 31598, "name": "COSMO-SKYMED 1", "group": "resource", "lat": 28.085059631200025, "lon": -13.441439706488737, "alt_km": 578.8174420573632, "timestamp": "2025-12-02T23:34:15.170126+00:00", "meta": {"OBJECT_NAME": "COSMO-SKYMED 1", "OBJECT_ID": "2007-023A", "EPOCH": "2025-12-02T11:39:22.465152", "MEAN_MOTION": 14.9564579, "ECCENTRICITY": 0.0001498, "INCLINATION": 97.8845, "RA_OF_ASC_NODE": 161.8183, "ARG_OF_PERICENTER": 83.2259, "MEAN_ANOMALY": 276.9132, "EPHEMERIS_TYPE": 0, "CLASSIFICATION_TYPE": "U", "NORAD_CAT_ID": 31598, "ELEMENT_SET_NO": 999, "REV_AT_EPOCH": 37, "BSTAR": 0.00043902, "MEAN_MOTION_DOT": 4.822e-05, "MEAN_MOTION_DDOT": 0}, "tle": {"line1": "1 31598U 07023A   25336.48567668  .00004822  00000+0  43902-3 0  9993", "line2": "2 31598  97.8845 161.8183 0001498  83.2259 276.9132 14.95645790   378"}}, "geometry": {"type": "Point", "coordinates": [-13.441439706488737, 28.085059631200025]}}, {"type": "Feature", "properties": {"norad_id": 31698, "name": "TERRASAR-X", "group": "resource", "lat": 64.3557487247999, "lon": -33.29914157409085, "alt_km": 500.9018646362356, "timestamp": "2025-12-02T23:34:15.170137+00:00", "meta": {"OBJECT_NAME": "TERRASAR-X", "OBJECT_ID": "2007-026A", "EPOCH": "2025-12-01T15:40:02.654400", "MEAN_MOTION": 15.19150274, "ECCENTRICITY": 0.00019062, "INCLINATION": 97.4444, "RA_OF_ASC_NODE": 341.1963, "ARG_OF_PERICENTER": 89.1201, "MEAN_ANOMALY": 271.0252, "EPHEMERIS_TYPE": 0, "CLASSIFICATION_TYPE": "U", "NORAD_CAT_ID": 31698, "ELEMENT_SET_NO": 999, "REV_AT_EPOCH": 2323, "BSTAR": 7.6522775e-05, "MEAN_MOTION_DOT": 1.54e-05, "MEAN_MOTION_DDOT": 0}, "tle": {"line1": "1 31698U 07026A   25335.65280850  .00001540  00000+0  76523-4 0  9990", "line2": "2 31698  97.4444 341.1963 0001906  89.1201 271.0252 15.19150274 23239"}}, "geometry": {"type": "Point", "coordinates": [-33.29914157409085, 64.3557487247999]}}, {"type": "Feature", "properties": {"norad_id": 32060, "name": "WORLDVIEW-1 (WV-1)", "group": "resource", "lat": -56.312594722331816, "lon": -96.61499015302063, "alt_km": 500.0203564605554, "timestamp": "2025-12-02T23:34:15.170148+00:00", "meta": {"OBJECT_NAME": "WORLDVIEW-1 (WV-1)", "OBJECT_ID": "2007-041A", "EPOCH": "2025-12-02T08:21:22.025376", "MEAN_MOTION": 15.24416549, "ECCENTRICITY": 7.23e-05, "INCLINATION": 97.3833, "RA_OF_ASC_NODE": 93.9775, "ARG_OF_PERICENTER": 92.4117, "MEAN_ANOMALY": 267.7203, "EPHEMERIS_TYPE": 0, "CLASSIFICATION_TYPE": "U", "NORAD_CAT_ID": 32060, "ELEMENT_SET_NO": 999, "REV_AT_EPOCH": 1289, "BSTAR": 0.00046516, "MEAN_MOTION_DOT": 0.00011344, "MEAN_MOTION_DDOT": 0}, "tle": {"line1": "1 32060U 07041A   25336.34817159  .00011344  00000+0  46516-3 0  9997", "line2": "2 32060  97.3833  93.9775 0000723  92.4117 267.7203 15.24416549 12890"}}, "geometry": {"type": "Point", "coordinates": [-96.61499015302063, -56.312594722331816]}}]}